{
  "type": "FeatureCollection",
  "features": [
    {
      "type": "Feature",
      "properties": {
        "norad_id": 30144,
        "name": "FENGYUN 1C DEB",
        "group": "fengyun-1c-debris",
        "lat": 52.91358860596334,
        "lon": 162.9636413696512,
        "alt_km": 1008.1593929749561,
        "timestamp": "2025-12-03T19:33:07.250323+00:00",
        "meta_object_name": "FENGYUN 1C DEB",
        "meta_object_id": "1999-025SZ",
        "meta_epoch": "2025-12-02T12:29:39.543648",
        "meta_mean_motion": 13.91793061,
        "meta_eccentricity": 0.01260725,
        "meta_inclination": 99.0097,
        "meta_ra_of_asc_node": 329.5909,
        "meta_arg_of_pericenter": 318.8143,
        "meta_mean_anomaly": 166.6543,
        "meta_ephemeris_type": 0,
        "meta_classification_type": "U",
        "meta_norad_cat_id": 30144,
        "meta_element_set_no": 999,
        "meta_rev_at_epoch": 95698,
        "meta_bstar": 0.00077423743,
        "meta_mean_motion_dot": 1.007e-05,
        "meta_mean_motion_ddot": 0,
        "tle_line1": "1 30144U 99025SZ  25336.52059657  .00001007  00000+0  77424-3 0  9999",
        "tle_line2": "2 30144  99.0097 329.5909 0126072 318.8143 166.6543 13.91793061956989"
      },
      "geometry": {
        "type": "Point",
        "coordinates": [
          162.9636413696512,
          52.91358860596334
        ]
      }
    },
    {
      "type": "Feature",
      "properties": {
        "norad_id": 30145,
        "name": "FENGYUN 1C DEB",
        "group": "fengyun-1c-debris",
        "lat": -30.570390018939698,
        "lon": -98.472203381378,
        "alt_km": 799.0458426405712,
        "timestamp": "2025-12-03T19:33:07.250333+00:00",
        "meta_object_name": "FENGYUN 1C DEB",
        "meta_object_id": "1999-025TA",
        "meta_epoch": "2025-12-03T06:48:09.209952",
        "meta_mean_motion": 14.13837143,
        "meta_eccentricity": 0.0092638,
        "meta_inclination": 99.2709,
        "meta_ra_of_asc_node": 86.5139,
        "meta_arg_of_pericenter": 174.5755,
        "meta_mean_anomaly": 213.3233,
        "meta_ephemeris_type": 0,
        "meta_classification_type": "U",
        "meta_norad_cat_id": 30145,
        "meta_element_set_no": 999,
        "meta_rev_at_epoch": 96062,
        "meta_bstar": 0.0043636,
        "meta_mean_motion_dot": 8.573e-05,
        "meta_mean_motion_ddot": 0,
        "tle_line1": "1 30145U 99025TA  25337.28343993  .00008573  00000+0  43636-2 0  9995",
        "tle_line2": "2 30145  99.2709  86.5139 0092638 174.5755 213.3233 14.13837143960620"
      },
      "geometry": {
        "type": "Point",
        "coordinates": [
          -98.472203381378,
          -30.570390018939698
        ]
      }
    },
    {
      "type": "Feature",
      "properties": {
        "norad_id": 30146,
        "name": "FENGYUN 1C DEB",
        "group": "fengyun-1c-debris",
        "lat": -23.821191560077434,
        "lon": 142.26763286650146,
        "alt_km": 1075.45051836526,
        "timestamp": "2025-12-03T19:33:07.250343+00:00",
        "meta_object_name": "FENGYUN 1C DEB",
        "meta_object_id": "1999-025TB",
        "meta_epoch": "2025-12-03T01:13:30.770112",
        "meta_mean_motion": 13.86572233,
        "meta_eccentricity": 0.01787368,
        "meta_inclination": 98.02,
        "meta_ra_of_asc_node": 138.0437,
        "meta_arg_of_pericenter": 149.7086,
        "meta_mean_anomaly": 337.0393,
        "meta_ephemeris_type": 0,
        "meta_classification_type": "U",
        "meta_norad_cat_id": 30146,
        "meta_element_set_no": 999,
        "meta_rev_at_epoch": 95283,
        "meta_bstar": 0.00091047317,
        "meta_mean_motion_dot": 1.166e-05,
        "meta_mean_motion_ddot": 0,
        "tle_line1": "1 30146U 99025TB  25337.05105058  .00001166  00000+0  91047-3 0  9990",
        "tle_line2": "2 30146  98.0200 138.0437 0178736 149.7086 337.0393 13.86572233952833"
      },
      "geometry": {
        "type": "Point",
        "coordinates": [
          142.26763286650146,
          -23.821191560077434
        ]
      }
    },
    {
      "type": "Feature",
      "properties": {
        "norad_id": 30148,
        "name": "FENGYUN 1C DEB",
        "group": "fengyun-1c-debris",
        "lat": -57.225962842071766,
        "lon": 142.0604333176123,
        "alt_km": 924.6710261915232,
        "timestamp": "2025-12-03T19:33:07.250354+00:00",
        "meta_object_name": "FENGYUN 1C DEB",
        "meta_object_id": "1999-025TD",
        "meta_epoch": "2025-12-02T23:40:52.710816",
        "meta_mean_motion": 13.88451209,
        "meta_eccentricity": 0.01347826,
        "meta_inclination": 99.5453,
        "meta_ra_of_asc_node": 126.0634,
        "meta_arg_of_pericenter": 222.5829,
        "meta_mean_anomaly": 261.2361,
        "meta_ephemeris_type": 0,
        "meta_classification_type": "U",
        "meta_norad_cat_id": 30148,
        "meta_element_set_no": 999,
        "meta_rev_at_epoch": 95381,
        "meta_bstar": 0.0011371118,
        "meta_mean_motion_dot": 1.42e-05,
        "meta_mean_motion_ddot": 0,
        "tle_line1": "1 30148U 99025TD  25336.98672119  .00001420  00000+0  11371-2 0  9994",
        "tle_line2": "2 30148  99.5453 126.0634 0134782 222.5829 261.2361 13.88451209953818"
      },
      "geometry": {
        "type": "Point",
        "coordinates": [
          142.0604333176123,
          -57.225962842071766
        ]
      }
    },
    {
      "type": "Feature",
      "properties": {
        "norad_id": 30150,
        "name": "FENGYUN 1C DEB",
        "group": "fengyun-1c-debris",
        "lat": 40.28665606260833,
        "lon": -58.13844876776356,
        "alt_km": 1017.324223503907,
        "timestamp": "2025-12-03T19:33:07.250364+00:00",
        "meta_object_name": "FENGYUN 1C DEB",
        "meta_object_id": "1999-025TF",
        "meta_epoch": "2025-12-03T08:45:28.585152",
        "meta_mean_motion": 13.86576478,
        "meta_eccentricity": 0.0146718,
        "meta_inclination": 98.9941,
        "meta_ra_of_asc_node": 113.7139,
        "meta_arg_of_pericenter": 1.6059,
        "meta_mean_anomaly": 52.4916,
        "meta_ephemeris_type": 0,
        "meta_classification_type": "U",
        "meta_norad_cat_id": 30150,
        "meta_element_set_no": 999,
        "meta_rev_at_epoch": 95328,
        "meta_bstar": 0.00063508,
        "meta_mean_motion_dot": 7.61e-06,
        "meta_mean_motion_ddot": 0,
        "tle_line1": "1 30150U 99025TF  25337.36491418  .00000761  00000+0  63508-3 0  9998",
        "tle_line2": "2 30150  98.9941 113.7139 0146718   1.6059  52.4916 13.86576478953283"
      },
      "geometry": {
        "type": "Point",
        "coordinates": [
          -58.13844876776356,
          40.28665606260833
        ]
      }
    },
    {
      "type": "Feature",
      "properties": {
        "norad_id": 30151,
        "name": "FENGYUN 1C DEB",
        "group": "fengyun-1c-debris",
        "lat": 9.467458595675184,
        "lon": -15.427776211836807,
        "alt_km": 900.97480750671,
        "timestamp": "2025-12-03T19:33:07.250374+00:00",
        "meta_object_name": "FENGYUN 1C DEB",
        "meta_object_id": "1999-025TG",
        "meta_epoch": "2025-12-03T00:43:17.165856",
        "meta_mean_motion": 13.84448896,
        "meta_eccentricity": 0.0163271,
        "meta_inclination": 99.0635,
        "meta_ra_of_asc_node": 345.34,
        "meta_arg_of_pericenter": 304.9779,
        "meta_mean_anomaly": 114.6215,
        "meta_ephemeris_type": 0,
        "meta_classification_type": "U",
        "meta_norad_cat_id": 30151,
        "meta_element_set_no": 999,
        "meta_rev_at_epoch": 95111,
        "meta_bstar": 0.00089012415,
        "meta_mean_motion_dot": 1.062e-05,
        "meta_mean_motion_ddot": 0,
        "tle_line1": "1 30151U 99025TG  25337.03005979  .00001062  00000+0  89012-3 0  9999",
        "tle_line2": "2 30151  99.0635 345.3400 0163271 304.9779 114.6215 13.84448896951114"
      },
      "geometry": {
        "type": "Point",
        "coordinates": [
          -15.427776211836807,
          9.467458595675184
        ]
      }
    },
    {
      "type": "Feature",
      "properties": {
        "norad_id": 30152,
        "name": "FENGYUN 1C DEB",
        "group": "fengyun-1c-debris",
        "lat": 76.97044663265085,
        "lon": 59.39337224457753,
        "alt_km": 783.0190621592983,
        "timestamp": "2025-12-03T19:33:07.250384+00:00",
        "meta_object_name": "FENGYUN 1C DEB",
        "meta_object_id": "1999-025TH",
        "meta_epoch": "2025-12-03T03:36:35.722080",
        "meta_mean_motion": 13.96585453,
        "meta_eccentricity": 0.01609806,
        "meta_inclination": 99.0808,
        "meta_ra_of_asc_node": 195.0199,
        "meta_arg_of_pericenter": 111.8172,
        "meta_mean_anomaly": 250.0202,
        "meta_ephemeris_type": 0,
        "meta_classification_type": "U",
        "meta_norad_cat_id": 30152,
        "meta_element_set_no": 999,
        "meta_rev_at_epoch": 95244,
        "meta_bstar": 0.0028149658,
        "meta_mean_motion_dot": 4.306e-05,
        "meta_mean_motion_ddot": 0,
        "tle_line1": "1 30152U 99025TH  25337.15041345  .00004306  00000+0  28150-2 0  9999",
        "tle_line2": "2 30152  99.0808 195.0199 0160980 111.8172 250.0202 13.96585453952440"
      },
      "geometry": {
        "type": "Point",
        "coordinates": [
          59.39337224457753,
          76.97044663265085
        ]
      }
    }
  ]
}